     3.02           N: GNSS NAV DATA    J: QZSS             RINEX VERSION / TYPE
cnvtToRINEX 2.30.0  convertToRINEX OPR  20140513 072944 UTC PGM / RUN BY / DATE 
----------------------------------------------------------- COMMENT             
QZSA    0.0000D+00  0.0000D+00  0.0000D+00  0.0000D+00      IONOSPHERIC CORR    
QZSB    0.0000D+00  0.0000D+00  0.0000D+00  0.0000D+00      IONOSPHERIC CORR    
QZUT  0.0000000000D+00 0.000000000D+00      0    0          TIME SYSTEM CORR    
    17                                                      LEAP SECONDS        
                                                            END OF HEADER       
J01 2016 05 06 18 15 12-0.325350090861D-03 0.346744855051D-10 0.277555756156D-16
     0.600000000000D+01 0.114187500000D+03 0.230688180517D-08-0.294251170864D+01
     0.328011810780D-05 0.751243839040D-01 0.328011810780D-05 0.649286554337D+04
     0.497712000000D+06 0.722706317902D-06-0.820407099420D+00-0.145286321640D-06
     0.709942243030D+00-0.580500000000D+03-0.157817430104D+01-0.265939648882D-08
     0.584667210879D-09 0.200000000000D+01 0.189500000000D+04 0.100000000000D+01
     0.240000000000D+01 0.100000000000D+01-0.512227416039D-08 0.600000000000D+01
     0.494106000000D+06 0.400000000000D+01 0.000000000000D+00 0.000000000000D+00
J01 2016 05 06 18 30 08-0.325319357216D-03 0.346744855051D-10 0.277555756156D-16
     0.700000000000D+01 0.118093750000D+03 0.233831168578D-08-0.287715856008D+01
     0.335276126862D-05 0.751252667978D-01 0.335276126862D-05 0.649286364937D+04
     0.498608000000D+06 0.717118382454D-06-0.820409634657D+00-0.111758708954D-06
     0.709942798939D+00-0.569750000000D+03-0.157817187699D+01-0.265868217336D-08
     0.595024785171D-09 0.200000000000D+01 0.189500000000D+04 0.100000000000D+01
     0.240000000000D+01 0.100000000000D+01-0.512227416039D-08 0.700000000000D+01
     0.495006000000D+06 0.400000000000D+01 0.000000000000D+00 0.000000000000D+00
J01 2016 05 06 18 45 04-0.325287692249D-03 0.347881723428D-10 0.277555756156D-16
     0.800000000000D+01 0.125812500000D+03 0.237545609014D-08-0.281180758982D+01
     0.351294875145D-05 0.751266232692D-01 0.351294875145D-05 0.649286068153D+04
     0.499504000000D+06 0.672414898872D-06-0.820412420053D+00-0.465661287308D-07
     0.709943401661D+00-0.554062500000D+03-0.157816695866D+01-0.264975323000D-08
     0.621454457501D-09 0.200000000000D+01 0.189500000000D+04 0.100000000000D+01
     0.240000000000D+01 0.100000000000D+01-0.512227416039D-08 0.800000000000D+01
     0.495906000000D+06 0.400000000000D+01 0.000000000000D+00 0.000000000000D+00
J01 2016 05 06 19 00 00-0.325256492943D-03 0.347881723428D-10 0.277555756156D-16
     0.900000000000D+01 0.138000000000D+03 0.240902891715D-08-0.274645925134D+01
     0.378303229809D-05 0.751283939462D-01 0.378303229809D-05 0.649285670280D+04
     0.500400000000D+06 0.549480319023D-06-0.820415603363D+00 0.502914190292D-07
     0.709944105324D+00-0.534875000000D+03-0.157815891553D+01-0.262332355767D-08
     0.672170855757D-09 0.200000000000D+01 0.189500000000D+04 0.100000000000D+01
     0.240000000000D+01 0.100000000000D+01-0.512227416039D-08 0.900000000000D+01
     0.496806000000D+06 0.400000000000D+01 0.000000000000D+00 0.000000000000D+00
J01 2016 05 06 19 15 12-0.325225293636D-03 0.347881723428D-10 0.277555756156D-16
     0.100000000000D+02 0.154968750000D+03 0.242831543480D-08-0.267994678263D+01
     0.417232513428D-05 0.751305028098D-01 0.417232513428D-05 0.649285182190D+04
     0.501312000000D+06 0.316649675369D-06-0.820419301620D+00 0.145286321640D-06
     0.709944974298D+00-0.513781250000D+03-0.157814733654D+01-0.256903558207D-08
     0.750745557280D-09 0.200000000000D+01 0.189500000000D+04 0.100000000000D+01
     0.240000000000D+01 0.100000000000D+01-0.512227416039D-08 0.100000000000D+02
     0.497706000000D+06 0.400000000000D+01 0.000000000000D+00 0.000000000000D+00
J01 2016 05 06 19 30 08-0.325194094330D-03 0.347881723428D-10 0.277555756156D-16
     0.110000000000D+02 0.176406250000D+03 0.242188659558D-08-0.261460441286D+01
     0.467896461487D-05 0.751328596380D-01 0.467896461487D-05 0.649284618759D+04
     0.502208000000D+06-0.391155481339D-07-0.820423482640D+00 0.195577740669D-06
     0.709946053931D+00-0.492531250000D+03-0.157813205489D+01-0.247617457118D-08
     0.857535719805D-09 0.200000000000D+01 0.189500000000D+04 0.100000000000D+01
     0.240000000000D+01 0.100000000000D+01-0.512227416039D-08 0.110000000000D+02
     0.498606000000D+06 0.400000000000D+01 0.000000000000D+00 0.000000000000D+00
J01 2016 05 06 19 45 04-0.325163826346D-03 0.345607986674D-10 0.000000000000D+00
     0.120000000000D+02 0.201656250000D+03 0.238331356029D-08-0.254926488261D+01
     0.528804957867D-05 0.751353589585D-01 0.528804957867D-05 0.649283999062D+04
     0.503104000000D+06-0.501051545143D-06-0.820428106924D+00 0.139698386192D-06
     0.709947404205D+00-0.472750000000D+03-0.157811329590D+01-0.233902600125D-08
     0.986469661850D-09 0.200000000000D+01 0.189500000000D+04 0.100000000000D+01
     0.240000000000D+01 0.100000000000D+01-0.512227416039D-08 0.120000000000D+02
     0.499506000000D+06 0.400000000000D+01 0.000000000000D+00 0.000000000000D+00
J01 2016 05 06 20 00 00-0.325134489685D-03 0.341060513165D-10-0.277555756156D-16
     0.130000000000D+02 0.229562500000D+03 0.230938190931D-08-0.248392772522D+01
     0.597350299358D-05 0.751378865680D-01 0.597350299358D-05 0.649283346939D+04
     0.504000000000D+06-0.101327896118D-05-0.820433010625D+00-0.670552253723D-07
     0.709949041210D+00-0.455812500000D+03-0.157809163593D+01-0.215758987228D-08
     0.112540402045D-08 0.200000000000D+01 0.189500000000D+04 0.100000000000D+01
     0.240000000000D+01 0.100000000000D+01-0.512227416039D-08 0.130000000000D+02
     0.500406000000D+06 0.400000000000D+01 0.000000000000D+00 0.000000000000D+00
J01 2016 05 06 20 15 12-0.325102824718D-03 0.342197381542D-10-0.277555756156D-16
     0.140000000000D+02 0.258562500000D+03 0.220294890452D-08-0.241742509756D+01
     0.669993460178D-05 0.751403268659D-01 0.669993460178D-05 0.649282690430D+04
     0.504912000000D+06-0.149570405483D-05-0.820437993324D+00-0.447034835815D-06
     0.709950969336D+00-0.442687500000D+03-0.157806802590D+01-0.193936649668D-08
     0.126040964398D-08 0.200000000000D+01 0.189500000000D+04 0.100000000000D+01
     0.240000000000D+01 0.100000000000D+01-0.512227416039D-08 0.140000000000D+02
     0.501306000000D+06 0.400000000000D+01 0.000000000000D+00 0.000000000000D+00
J01 2016 05 06 20 30 08-0.325071625412D-03 0.343334249919D-10 0.000000000000D+00
     0.150000000000D+02 0.287000000000D+03 0.207330064701D-08-0.235209008334D+01
     0.742077827454D-05 0.751425669296D-01 0.742077827454D-05 0.649282059288D+04
     0.505808000000D+06-0.186078250408D-05-0.820442714161D+00-0.983476638794D-06
     0.709953080327D+00-0.433812500000D+03-0.157804376340D+01-0.169971365704D-08
     0.137612874986D-08 0.200000000000D+01 0.189500000000D+04 0.100000000000D+01
     0.240000000000D+01 0.100000000000D+01-0.512227416039D-08 0.150000000000D+02
     0.502206000000D+06 0.400000000000D+01 0.000000000000D+00 0.000000000000D+00
J01 2016 05 06 20 45 04-0.325041357428D-03 0.341060513165D-10-0.277555756156D-16
     0.160000000000D+02 0.313093750000D+03 0.193650923481D-08-0.228675431279D+01
     0.809691846371D-05 0.751445055939D-01 0.809691846371D-05 0.649281485558D+04
     0.506704000000D+06-0.202096998692D-05-0.820446905421D+00-0.161305069923D-05
     0.709955261538D+00-0.429000000000D+03-0.157802042547D+01-0.146113229060D-08
     0.145720355552D-08 0.200000000000D+01 0.189500000000D+04 0.100000000000D+01
     0.240000000000D+01 0.100000000000D+01-0.512227416039D-08 0.160000000000D+02
     0.503106000000D+06 0.400000000000D+01 0.000000000000D+00 0.000000000000D+00
J01 2016 05 06 21 00 00-0.325012486428D-03 0.337649908033D-10-0.555111512313D-16
     0.170000000000D+02 0.335187500000D+03 0.180578950410D-08-0.222141636542D+01
     0.868551433086D-05 0.751460669562D-01 0.868551433086D-05 0.649280998230D+04
     0.507600000000D+06-0.194087624550D-05-0.820450385703D+00-0.225380063057D-05
     0.709957382769D+00-0.427656250000D+03-0.157799962277D+01-0.124505186141D-08
     0.149684806402D-08 0.200000000000D+01 0.189500000000D+04 0.100000000000D+01
     0.240000000000D+01 0.100000000000D+01-0.512227416039D-08 0.170000000000D+02
     0.504006000000D+06 0.400000000000D+01 0.000000000000D+00 0.000000000000D+00
J01 2016 05 06 21 15 12-0.324980821460D-03 0.338786776410D-10-0.277555756156D-16
     0.180000000000D+02 0.352000000000D+03 0.170078513024D-08-0.215490775297D+01
     0.915862619877D-05 0.751472016564D-01 0.915862619877D-05 0.649280625343D+04
     0.508512000000D+06-0.161305069923D-05-0.820453001401D+00-0.279769301414D-05
     0.709959284562D+00-0.428531250000D+03-0.157798300256D+01-0.107754488407D-08
     0.148863343613D-08 0.200000000000D+01 0.189500000000D+04 0.100000000000D+01
     0.240000000000D+01 0.100000000000D+01-0.512227416039D-08 0.180000000000D+02
     0.504906000000D+06 0.400000000000D+01 0.000000000000D+00 0.000000000000D+00
J01 2016 05 06 21 30 08-0.324950087816D-03 0.338786776410D-10-0.277555756156D-16
     0.190000000000D+02 0.362718750000D+03 0.163185368754D-08-0.208956126362D+01
     0.949576497078D-05 0.751478940947D-01 0.949576497078D-05 0.649280384445D+04
     0.509408000000D+06-0.108778476715D-05-0.820454733496D+00-0.315904617310D-05
     0.709960782591D+00-0.430218750000D+03-0.157797198240D+01-0.975040614355D-09
     0.143648840694D-08 0.200000000000D+01 0.189500000000D+04 0.100000000000D+01
     0.240000000000D+01 0.100000000000D+01-0.512227416039D-08 0.190000000000D+02
     0.505806000000D+06 0.400000000000D+01 0.000000000000D+00 0.000000000000D+00
